GPS BIIR-2  (PRN 13)    
1 24876U 97035A   23083.56416262  .00000014  00000+0  00000+0 0  9992
2 24876  55.5527 144.7397 0066237  51.5462 309.1226  2.00564216188275
GPS BIIR-4  (PRN 20)    
1 26360U 00025A   23083.67633128 -.00000045  00000+0  00000+0 0  9994
2 26360  54.2953  67.3160 0043774 197.2923 332.0967  2.00551364167581
GPS BIIR-8  (PRN 16)    
1 27663U 03005A   23083.48029287  .00000001  00000+0  00000+0 0  9997
2 27663  55.3366 261.9277 0132396  43.9974 320.8415  2.00575485147638
GPS BIIR-9  (PRN 21)    
1 27704U 03010A   23083.44551720 -.00000108  00000+0  00000+0 0  9996
2 27704  55.0983  11.9854 0249666 314.2550 243.9911  2.00567686146429
GPS BIIR-11 (PRN 19)    
1 28190U 04009A   23083.61567098 -.00000077  00000+0  00000+0 0  9994
2 28190  55.8148 322.9635 0090503 130.2915 130.1269  2.00571085139295
GPS BIIR-13 (PRN 02)    
1 28474U 04045A   23083.16656124 -.00000107  00000+0  00000+0 0  9992
2 28474  55.4232  12.2433 0200922 284.3835 221.2626  2.00562917134743
GPS BIIRM-1 (PRN 17)    
1 28874U 05038A   23083.40694378 -.00000073  00000+0  00000+0 0  9991
2 28874  55.8707 320.4168 0137971 278.9124 216.5707  2.00556634128154
GPS BIIRM-2 (PRN 31)    
1 29486U 06042A   23083.35076959  .00000010  00000+0  00000+0 0  9990
2 29486  54.6918 198.1565 0105084  28.7947 338.6521  2.00503469120712
GPS BIIRM-3 (PRN 12)    
1 29601U 06052A   23081.29024107 -.00000006  00000+0  00000+0 0  9995
2 29601  55.3534 260.9651 0087078  77.0456 283.9025  2.00567569119687
GPS BIIRM-4 (PRN 15)    
1 32260U 07047A   23082.58960573  .00000020  00000+0  00000+0 0  9999
2 32260  53.4006 128.9692 0145478  67.5282 294.0867  2.00560725113119
GPS BIIRM-5 (PRN 29)    
1 32384U 07062A   23083.27949597 -.00000073  00000+0  00000+0 0  9992
2 32384  55.9983 321.2202 0021683 141.0341 127.7804  2.00576848111829
GPS BIIRM-6 (PRN 07)    
1 32711U 08012A   23083.00126647  .00000009  00000+0  00000+0 0  9994
2 32711  54.4566 197.0415 0171414 233.7193 124.6786  2.00552894110066
GPS BIIRM-8 (PRN 05)    
1 35752U 09043A   23081.49212101 -.00000021  00000+0  00000+0 0  9994
2 35752  55.2966  74.3533 0055948  63.6294 299.6459  2.00568261 99645
GPS BIIF-1  (PRN 25)    
1 36585U 10022A   23083.56785528  .00000004  00000+0  00000+0 0  9996
2 36585  54.6452 256.2009 0109784  59.0746 121.9372  2.00553392 93915
GPS BIIF-2  (PRN 01)    
1 37753U 11036A   23083.55387209 -.00000103  00000+0  00000+0 0  9994
2 37753  56.7075  17.8174 0123951  53.4430 199.0204  2.00567091 85597
GPS BIIF-3  (PRN 24)    
1 38833U 12053A   23082.68920209  .00000008  00000+0  00000+0 0  9993
2 38833  53.5149 191.9226 0135951  50.3208 310.8681  2.00564762 75748
GPS BIIF-4  (PRN 27)    
1 39166U 13023A   23083.04705727 -.00000067  00000+0  00000+0 0  9994
2 39166  55.4897 316.6934 0113364  40.0884 320.7896  2.00564900 72199
GPS BIIF-5  (PRN 30)    
1 39533U 14008A   23083.54668044  .00000009  00000+0  00000+0 0  9996
2 39533  53.6045 197.4251 0063999 211.2465 148.3656  2.00569119 66002
GPS BIIF-6  (PRN 06)    
1 39741U 14026A   23083.32496649 -.00000104  00000+0  00000+0 0  9990
2 39741  56.6636  17.3499 0030641 311.6729  48.0629  2.00568918 64855
GPS BIIF-7  (PRN 09)    
1 40105U 14045A   23083.41820182  .00000014  00000+0  00000+0 0  9999
2 40105  54.7609 135.6205 0021831 115.1899 245.1139  2.00566211 62392
GPS BIIF-8  (PRN 03)    
1 40294U 14068A   23083.29080918 -.00000027  00000+0  00000+0 0  9999
2 40294  56.0414  76.9012 0043856  55.9169 304.5024  2.00560764 61529
GPS BIIF-9  (PRN 26)    
1 40534U 15013A   23083.42342212  .00000002  00000+0  00000+0 0  9992
2 40534  53.5440 253.0853 0077943  24.9152 335.4201  2.00564629 58148
GPS BIIF-10 (PRN 08)    
1 40730U 15033A   23083.08501911 -.00000066  00000+0  00000+0 0  9998
2 40730  54.9816 315.3855 0083652  12.2433 348.0045  2.00563623 56303
GPS BIIF-11 (PRN 10)    
1 41019U 15062A   23083.63798581 -.00000028  00000+0  00000+0 0  9991
2 41019  56.0271  76.7349 0086278 221.8958 137.4447  2.00562384 54155
GPS BIIF-12 (PRN 32)    
1 41328U 16007A   23083.22700263  .00000017  00000+0  00000+0 0  9996
2 41328  54.9702 136.3672 0069535 233.3546 126.0810  2.00557541 52159
GPS BIII-1  (PRN 04)    
1 43873U 18109A   23083.50848247  .00000014  00000+0  00000+0 0  9991
2 43873  55.1480 138.8360 0023874 193.5916 259.5101  2.00560810 31398
GPS BIII-2  (PRN 18)    
1 44506U 19056A   23083.65740051 -.00000105  00000+0  00000+0 0  9999
2 44506  55.7839  17.9227 0030295 185.2920 276.3111  2.00562655 26394
GPS BIII-3  (PRN 23)    
1 45854U 20041A   23083.27377062 -.00000030  00000+0  00000+0 0  9995
2 45854  55.7475  75.2085 0030569 187.4290 299.6732  2.00566310 20353
GPS BIII-4  (PRN 14)    
1 46826U 20078A   23082.36349919 -.00000006  00000+0  00000+0 0  9997
2 46826  54.3989 258.7654 0028699 188.3162 337.4703  2.00563620 17803
GPS BIII-5  (PRN 11)    
1 48859U 21054A   23083.61218425 -.00000104  00000+0  00000+0 0  9995
2 48859  55.2969  19.7882 0008679 217.7505 312.4842  2.00558292 13072
GPS BIII-6  (PRN 28)    
1 55268U 23009A   23082.82396125  .00000010  00000+0  00000+0 0  9990
2 55268  55.0959 194.8659 0006796 100.6203 262.7091  2.00566482  1554
